[{"OBJECT_NAME":"STARLINK-2429","OBJECT_ID":"2021-018BD","EPOCH":"2026-03-09T19:19:17.658336","MEAN_MOTION":15.30195186,"ECCENTRICITY":0.00014122,"INCLINATION":53.1602,"RA_OF_ASC_NODE":244.9032,"ARG_OF_PERICENTER":77.7862,"MEAN_ANOMALY":282.3297,"EPHEMERIS_TYPE":0,"CLASSIFICATION_TYPE":"U","NORAD_CAT_ID":47838,"ELEMENT_SET_NO":999,"REV_AT_EPOCH":27670,"BSTAR":2.1653686e-5,"MEAN_MOTION_DOT":2.82e-6,"MEAN_MOTION_DDOT":0},{"OBJECT_NAME":"NUSAT-49 (KLARA DAN VON NEUMANN)","OBJECT_ID":"2024-149AJ","EPOCH":"2026-03-09T19:09:16.004160","MEAN_MOTION":15.30828857,"ECCENTRICITY":0.00011321,"INCLINATION":97.3807,"RA_OF_ASC_NODE":150.738,"ARG_OF_PERICENTER":286.7761,"MEAN_ANOMALY":73.3356,"EPHEMERIS_TYPE":0,"CLASSIFICATION_TYPE":"U","NORAD_CAT_ID":60500,"ELEMENT_SET_NO":999,"REV_AT_EPOCH":8693,"BSTAR":0.00043568345,"MEAN_MOTION_DOT":0.00012912,"MEAN_MOTION_DDOT":0}]
