STARLINK-2429           
1 47838U 21018BD  26068.80506549  .00000282  00000+0  21654-4 0  9994
2 47838  53.1602 244.9032 0001412  77.7862 282.3297 15.30195186276702
NUSAT-49 (KLARA DAN VO*)
1 60500U 24149AJ  26068.79810190  .00012912  00000+0  43568-3 0  9991
2 60500  97.3807 150.7380 0001132 286.7761  73.3356 15.30828857 86935
